#aV2016  3  6  0  0  0.00000000     288 DD+AD WGS84 FIT  NGA
## 1887      0.00000000   300.00000000 57453 0.0000000000000
+   30     1  2  3  5  6  7  8  9 10 11 12 13 14 15 16 17 18
+         19 20 21 22 23 24 25 26 27 28 29 30 31  0  0  0  0
+          0  0  0  0  0  0  0  0  0  0  0  0  0  0  0  0  0
+          0  0  0  0  0  0  0  0  0  0  0  0  0  0  0  0  0
+          0  0  0  0  0  0  0  0  0  0  0  0  0  0  0  0  0
++         2  2  2  2  2  2  2  2  2  2  2  2  2  2  2  2  2
++         2  2  2  2  2  2  2  2  2  2  2  2  2  0  0  0  0
++         0  0  0  0  0  0  0  0  0  0  0  0  0  0  0  0  0
++         0  0  0  0  0  0  0  0  0  0  0  0  0  0  0  0  0
++         0  0  0  0  0  0  0  0  0  0  0  0  0  0  0  0  0
%c cc cc ccc ccc cccc cccc cccc cccc ccccc ccccc ccccc ccccc
%c cc cc ccc ccc cccc cccc cccc cccc ccccc ccccc ccccc ccccc
%f  0.0000000  0.000000000  0.00000000000  0.000000000000000
%f  0.0000000  0.000000000  0.00000000000  0.000000000000000
%i    0    0    0    0      0      0      0      0         0
%i    0    0    0    0      0      0      0      0         0
/*      NGA, ST. LOUIS,MO.                                  
/*   EPHEMERIS COMPUTED FROM 2 DAYS OF DATA                 
/*   EPOCHA v2.4 SMOOTHER                                   
/*   G1762 IERS2010 SATAF SATAPC                            
*  2016  3  6 20 10  0.00000000
P  1 -18212.641049 -13725.590227 -13870.668961     13.627649                    
V  1  17418.214213   1736.854750 -24502.741237      0.010552                    
P  2  -4543.587492  15213.495376  21696.487263    599.317941                    
V  2 -26209.548429  -4828.351447  -2557.637136     -0.002309                    
P  3 -13298.209118 -21390.799054   8412.619222    -32.981750                    
V  3   -851.575766 -10974.973574 -29268.116590     -0.045145                    
P  5    846.854405  24487.292617   9936.503045   -139.938695                    
V  5  -7056.363412 -11114.529434  27993.786744      0.033463                    
P  6 -19259.738065   7797.099909  16553.036776    156.303045                    
V  6 -20211.714255  -5941.083288 -20736.257335      0.058816                    
P  7 -26148.549378  -5738.485462   -453.404803    466.505021                    
V  7   -191.750689  -2387.967918  31630.967895     -0.017738                    
P  8   -251.825032 -19119.183633 -18367.605764    -26.483181                    
V  8  16610.944392 -16616.454532  17036.526751     -0.013999                    
P  9 -18235.335322     89.424924  19294.004989     84.604023                    
V  9  15171.381393 -19359.432532  14401.026963      0.075936                    
P 10  13484.154565  -7419.612090 -21631.007587     32.593635                    
V 10   9062.626245  25967.289510  -3311.792611     -0.072323                    
P 11 -13369.152385 -13400.114163 -19201.461836   -635.536577                    
V 11  22907.360408  -5589.889403 -12356.963853     -0.017533                    
P 12  10098.982183  24148.781733   5048.711773    371.329118                    
V 12    138.610306   6710.271737 -31409.759299      0.015874                    
P 13  -8790.142592  20843.209678 -14128.490860     -1.536787                    
V 13 -14342.850737  10444.254986  24481.501767     -0.028414                    
P 14  21343.099597 -13967.716214  -6870.344348     -0.981284                    
V 14  -4632.412375   8288.093220 -30289.638762     -0.022175                    
P 15   5858.483588  16541.928992 -19966.582617   -300.477230                    
V 15 -16862.028104  18912.243821  11134.413542     -0.018064                    
P 16   1000.555336 -24085.248614  10602.078508    -34.270018                    
V 16   5274.912792  12782.452389  28677.303445      0.029938                    
P 17 -21048.691679  13450.132198  -8407.940550   -201.651198                    
V 17   6069.523198  -9684.664180 -29721.698635     -0.005565                    
P 18  17280.186918   6043.495825 -18805.542536    490.803716                    
V 18   6981.765721  24107.540974  13514.956595      0.040747                    
P 19 -18882.183496  18908.417854   1423.818351   -525.157819                    
V 19  -2963.016618   -156.847194 -31683.726961     -0.002081                    
P 20  13300.318055  22532.243202  -4557.558670    397.530593                    
V 20  -1316.765860   6685.514360  30291.933536      0.025731                    
P 21  26332.779172   2604.073820  -2878.433045   -513.674545                    
V 21   3853.264265   4158.728591  30738.337374     -0.017209                    
P 22  -1316.923895 -24607.572946  -9503.272642    385.912517                    
V 22   7791.127340  10467.376417 -27673.382444     -0.064419                    
P 23 -11374.803183 -10701.279291  21651.958073   -163.399789                    
V 23  18219.011291 -20122.253795   -811.810113     -0.018418                    
P 24  15575.891411  14523.825543 -16043.508836    -13.514538                    
V 24 -20252.243091  -1710.693464 -21088.285615     -0.006104                    
P 25  15628.597923  15598.825404  14789.396353   -129.389349                    
V 25   4428.346413  18400.516726 -23722.339517     -0.068945                    
P 26   7319.173602 -17931.370957  18157.182872   -282.283193                    
V 26   8900.796123  21342.036211  17532.092016     -0.149675                    
P 27   9285.295420 -22141.017704 -11205.625412     69.444293                    
V 27  11125.604752  -9170.690882  27543.277989      0.036999                    
P 28 -13297.019468   5524.285865 -21688.104368    507.258155                    
V 28  -7249.713814 -28080.187774  -2676.374783      0.027302                    
P 29  16176.553278   3630.725192  20755.637894    655.455516                    
V 29 -17953.652548  19214.426152  10682.480787      0.006461                    
P 30 -24328.508624   1088.997084 -10708.633974    103.984713                    
V 30 -12367.427010  -6165.021501  27408.216758      0.040284                    
P 31  17756.162877  -8444.822958  18135.725753    279.593518                    
V 31  21739.369743   6439.902954 -18039.049665     -0.016813                    
EOF
